NORAD_CAT_ID,OBJECT_NAME,OBJECT_TYPE,EPOCH,MEAN_MOTION,ECCENTRICITY,INCLINATION,RA_OF_ASC_NODE,ARG_OF_PERICENTER,MEAN_ANOMALY,BSTAR,MEAN_MOTION_DOT,MEAN_MOTION_DDOT,TLE_LINE0,TLE_LINE1,TLE_LINE2,SEMIMAJOR_AXIS,PERIOD,APOGEE,PERIGEE,DECAYED
52837.0,STARLINK-4036,PAYLOAD,2024-02-26 11:02:39,15.08845607,0.0001872,53.2183,126.1155,105.8216,254.2982,0.00011215,1.497e-05,0.0,0 STARLINK-4036,1 52837U 22062H   24057.46017853  .00001497  00000-0  11215-3 0  9993,2 52837  53.2183 126.1155 0001872 105.8216 254.2982 15.08845607 93739,6917.863,95.437,541.023,538.433,0.0
52837.0,STARLINK-4036,PAYLOAD,2024-02-26 14:13:25,15.08845015,0.0001936,53.2186,125.5167,120.0644,240.054,0.00017014,2.421e-05,0.0,0 STARLINK-4036,1 52837U 22062H   24057.59265567  .00002421  00000-0  17014-3 0  9995,2 52837  53.2186 125.5167 0001936 120.0644 240.0540 15.08845015 93751,6917.865,95.437,541.069,538.391,0.0
52837.0,STARLINK-4036,PAYLOAD,2024-02-27 10:53:27,15.08838713,0.0001564,53.2177,121.6552,96.2184,263.8987,-6.5293e-05,-1.327e-05,0.0,0 STARLINK-4036,1 52837U 22062H   24058.45378777 -.00001327  00000-0 -65293-4 0  9998,2 52837  53.2177 121.6552 0001564  96.2184 263.8987 15.08838713 93885,6917.884,95.438,540.831,538.667,0.0
52837.0,STARLINK-4036,PAYLOAD,2024-02-28 10:44:13,15.08844381,0.0001364,53.2176,117.1987,98.5285,261.5861,2.0199e-05,3.4e-07,0.0,0 STARLINK-4036,1 52837U 22062H   24059.44738387  .00000034  00000-0  20199-4 0  9993,2 52837  53.2176 117.1987 0001364  98.5285 261.5861 15.08844381 94033,6917.867,95.437,540.676,538.788,0.0
52837.0,STARLINK-4036,PAYLOAD,2024-02-29 04:13:28,15.08834286,0.0001363,53.2177,113.9278,97.6618,262.4529,0.0001243,1.691e-05,0.0,0 STARLINK-4036,1 52837U 22062H   24060.17602971  .00001691  00000-0  12430-3 0  9992,2 52837  53.2177 113.9278 0001363  97.6618 262.4529 15.08834286 94146,6917.898,95.438,540.706,538.82,0.0
52837.0,STARLINK-4036,PAYLOAD,2024-02-29 10:35:01,15.08838317,0.0001364,53.2176,112.7381,97.1671,262.9476,0.00015511,2.181e-05,0.0,0 STARLINK-4036,1 52837U 22062H   24060.44098814  .00002181  00000-0  15511-3 0  9995,2 52837  53.2176 112.7381 0001364  97.1671 262.9476 15.08838317 94181,6917.886,95.438,540.694,538.807,0.0
52837.0,STARLINK-4036,PAYLOAD,2024-02-29 20:07:20,15.08840804,0.0001342,53.2173,110.9538,96.1532,263.9613,0.00014186,1.971e-05,0.0,0 STARLINK-4036,1 52837U 22062H   24060.83842694  .00001971  00000-0  14186-3 0  9994,2 52837  53.2173 110.9538 0001342  96.1532 263.9613 15.08840804 94248,6917.878,95.438,540.671,538.815,0.0
52837.0,STARLINK-4036,PAYLOAD,2024-03-01 10:25:48,15.08839264,0.0001627,53.2189,108.2793,101.4973,258.6202,4.3348e-05,4.02e-06,0.0,0 STARLINK-4036,1 52837U 22062H   24061.43459186  .00000402  00000-0  43348-4 0  9992,2 52837  53.2189 108.2793 0001627 101.4973 258.6202 15.08839264 94336,6917.883,95.438,540.873,538.622,0.0
52837.0,STARLINK-4036,PAYLOAD,2024-03-02 10:16:35,15.08848776,0.0001788,53.2185,103.8158,107.7156,252.4031,7.1696e-05,8.53e-06,0.0,0 STARLINK-4036,1 52837U 22062H   24062.42818463  .00000853  00000-0  71696-4 0  9996,2 52837  53.2185 103.8158 0001788 107.7156 252.4031 15.08848776 94484,6917.854,95.437,540.955,538.482,0.0
52837.0,STARLINK-4036,PAYLOAD,2024-03-03 02:10:27,15.08837009,0.0001825,53.2174,100.8451,79.9769,280.1429,7.9495e-05,9.77e-06,0.0,0 STARLINK-4036,1 52837U 22062H   24063.09059382  .00000977  00000-0  79495-4 0  9999,2 52837  53.2174 100.8451 0001825  79.9769 280.1429 15.08837009 94584,6917.89,95.438,541.017,538.492,0.0
52837.0,STARLINK-4036,PAYLOAD,2024-03-03 10:07:23,15.08836912,0.0001572,53.2166,99.3551,85.9131,274.2041,3.6927e-05,3e-06,0.0,0 STARLINK-4036,1 52837U 22062H   24063.42179545  .00000300  00000-0  36927-4 0  9993,2 52837  53.2166  99.3551 0001572  85.9131 274.2041 15.08836912 94639,6917.89,95.438,540.842,538.667,0.0
52837.0,STARLINK-4036,PAYLOAD,2024-03-04 11:33:31,15.08862871,0.0001583,53.2163,94.5947,85.3099,274.8073,0.00018279,2.624e-05,0.0,0 STARLINK-4036,1 52837U 22062H   24064.48161382  .00002624  00000-0  18279-3 0  9990,2 52837  53.2163  94.5947 0001583  85.3099 274.8073 15.08862871 94792,6917.81,95.436,540.771,538.58,0.0
52837.0,STARLINK-4036,PAYLOAD,2024-03-04 19:30:28,15.08835972,0.0001707,53.2157,93.1096,85.9011,274.2176,2.8637e-05,1.68e-06,0.0,0 STARLINK-4036,1 52837U 22062H   24064.81283228  .00000168  00000-0  28637-4 0  9992,2 52837  53.2157  93.1096 0001707  85.9011 274.2176 15.08835972 94849,6917.893,95.438,540.939,538.577,0.0
52837.0,STARLINK-4036,PAYLOAD,2024-03-05 11:24:20,15.08823367,0.0001944,53.2183,90.1332,114.1078,246.0117,-3.4625e-05,-8.39e-06,0.0,0 STARLINK-4036,1 52837U 22062H   24065.47524296 -.00000839  00000-0 -34625-4 0  9999,2 52837  53.2183  90.1332 0001944 114.1078 246.0117 15.08823367 94947,6917.931,95.439,541.141,538.451,0.0
52837.0,STARLINK-4036,PAYLOAD,2024-03-06 11:15:06,15.08855366,0.0001744,53.2169,85.6737,99.685,260.4339,0.00020285,2.943e-05,0.0,0 STARLINK-4036,1 52837U 22062H   24066.46882887  .00002943  00000-0  20285-3 0  9994,2 52837  53.2169  85.6737 0001744  99.6850 260.4339 15.08855366 95099,6917.833,95.437,540.905,538.492,0.0
52837.0,STARLINK-4036,PAYLOAD,2024-03-06 23:58:13,15.08834458,0.0001604,53.2168,83.2957,98.8124,261.305,0.00021842,3.189e-05,0.0,0 STARLINK-4036,1 52837U 22062H   24066.99876211  .00003189  00000-0  21842-3 0  9999,2 52837  53.2168  83.2957 0001604  98.8124 261.3050 15.08834458 95174,6917.897,95.438,540.872,538.653,0.0
52837.0,STARLINK-4036,PAYLOAD,2024-03-07 07:55:08,15.08837157,0.0001581,53.2168,81.8096,98.5503,261.5668,0.00018184,2.607e-05,0.0,0 STARLINK-4036,1 52837U 22062H   24067.32996206  .00002607  00000-0  18184-3 0  9993,2 52837  53.2168  81.8096 0001581  98.5503 261.5668 15.08837157 95226,6917.889,95.438,540.848,538.66,0.0
52837.0,STARLINK-4036,PAYLOAD,2024-03-08 06:10:32,15.08846172,0.0001605,53.2166,77.6477,103.9324,256.1847,0.00017557,2.508e-05,0.0,0 STARLINK-4036,1 52837U 22062H   24068.25731893  .00002508  00000-0  17557-3 0  9998,2 52837  53.2166  77.6477 0001605 103.9324 256.1847 15.08846172 95360,6917.862,95.437,540.837,538.616,0.0
52837.0,STARLINK-4036,PAYLOAD,2024-03-08 09:21:18,15.08848054,0.0001577,53.2168,77.0515,100.5914,259.5256,0.00034196,5.16e-05,0.0,0 STARLINK-4036,1 52837U 22062H   24068.38979896  .00005160  00000-0  34196-3 0  9994,2 52837  53.2168  77.0515 0001577 100.5914 259.5256 15.08848054 95389,6917.856,95.437,540.812,538.63,0.0
52837.0,STARLINK-4036,PAYLOAD,2024-03-08 17:18:14,15.08842908,0.0001549,53.2161,75.5654,99.1278,260.9889,0.00025628,3.793e-05,0.0,0 STARLINK-4036,1 52837U 22062H   24068.72100015  .00003793  00000-0  25628-3 0  9991,2 52837  53.2161  75.5654 0001549  99.1278 260.9889 15.08842908 95430,6917.872,95.437,540.808,538.665,0.0
52837.0,STARLINK-4036,PAYLOAD,2024-03-09 04:25:56,15.08842458,0.0001575,53.2167,73.4829,96.4772,263.64,0.00013764,1.903e-05,0.0,0 STARLINK-4036,1 52837U 22062H   24069.18468018  .00001903  00000-0  13764-3 0  9991,2 52837  53.2167  73.4829 0001575  96.4772 263.6400 15.08842458 95502,6917.873,95.437,540.827,538.648,0.0
52837.0,STARLINK-4036,PAYLOAD,2024-03-09 09:12:05,15.08847584,0.0001644,53.2161,72.5897,92.3608,267.7572,0.0002524,3.732e-05,0.0,0 STARLINK-4036,1 52837U 22062H   24069.38339904  .00003732  00000-0  25240-3 0  9998,2 52837  53.2161  72.5897 0001644  92.3608 267.7572 15.08847584 95534,6917.857,95.437,540.86,538.585,0.0
52837.0,STARLINK-4036,PAYLOAD,2024-03-09 17:09:01,15.08844973,0.0001589,53.2164,71.1025,89.2209,270.8965,0.00013836,1.915e-05,0.0,0 STARLINK-4036,1 52837U 22062H   24069.71459759  .00001915  00000-0  13836-3 0  9995,2 52837  53.2164  71.1025 0001589  89.2209 270.8965 15.08844973 95580,6917.865,95.437,540.829,538.631,0.0
52837.0,STARLINK-4036,PAYLOAD,2024-03-10 09:02:52,15.0884312,0.0001731,53.2176,68.126,90.5989,269.5201,0.00012529,1.707e-05,0.0,0 STARLINK-4036,1 52837U 22062H   24070.37699959  .00001707  00000-0  12529-3 0  9994,2 52837  53.2176  68.1260 0001731  90.5989 269.5201 15.08843120 95681,6917.871,95.437,540.933,538.538,0.0
52837.0,STARLINK-4036,PAYLOAD,2024-03-10 16:59:48,15.08841367,0.0001504,53.2168,66.6409,88.1377,271.9787,7.3424e-06,-1.71e-06,0.0,0 STARLINK-4036,1 52837U 22062H   24070.70819960 -.00000171  00000-0  73424-5 0  9995,2 52837  53.2168  66.6409 0001504  88.1377 271.9787 15.08841367 95735,6917.876,95.437,540.782,538.701,0.0
52837.0,STARLINK-4036,PAYLOAD,2024-03-11 04:07:30,15.08839309,0.00016,53.2171,64.5587,91.5747,268.5428,6.0836e-05,6.8e-06,0.0,0 STARLINK-4036,1 52837U 22062H   24071.17188185  .00000680  00000-0  60836-4 0  9991,2 52837  53.2171  64.5587 0001600  91.5747 268.5428 15.08839309 95804,6917.883,95.438,540.854,538.641,0.0
52837.0,STARLINK-4036,PAYLOAD,2024-03-11 05:42:53,15.08840774,0.0001596,53.2176,64.2616,91.121,268.9965,2.8282e-05,1.62e-06,0.0,0 STARLINK-4036,1 52837U 22062H   24071.23812127  .00000162  00000-0  28282-4 0  9992,2 52837  53.2176  64.2616 0001596  91.1210 268.9965 15.08840774 95813,6917.878,95.438,540.847,538.639,0.0
52837.0,STARLINK-4036,PAYLOAD,2024-03-12 08:44:26,15.08845094,0.000155,53.2173,59.2059,104.2702,255.8462,0.00013191,1.812e-05,0.0,0 STARLINK-4036,1 52837U 22062H   24072.36419909  .00001812  00000-0  13191-3 0  9993,2 52837  53.2173  59.2059 0001550 104.2702 255.8462 15.08845094 95982,6917.865,95.437,540.802,538.658,0.0
52837.0,STARLINK-4036,PAYLOAD,2024-03-12 16:41:22,15.08839184,0.0001681,53.2182,57.7181,98.0367,262.0816,7.7304e-05,9.42e-06,0.0,0 STARLINK-4036,1 52837U 22062H   24072.69540337  .00000942  00000-0  77304-4 0  9999,2 52837  53.2182  57.7181 0001681  98.0367 262.0816 15.08839184 96036,6917.883,95.438,540.911,538.585,0.0
52837.0,STARLINK-4036,PAYLOAD,2024-03-13 08:35:14,15.0884088,0.0001587,53.2182,54.745,101.5287,258.5883,7.4036e-05,8.9e-06,0.0,0 STARLINK-4036,1 52837U 22062H   24073.35780228  .00000890  00000-0  74036-4 0  9999,2 52837  53.2182  54.7450 0001587 101.5287 258.5883 15.08840880 96138,6917.878,95.437,540.841,538.645,0.0
